0 SL-12 R/B(2)
1 15693U 84063F   13281.64431094 -.00000164  00000-0  10000-3 0  8749
2 15693 013.4723 352.7086 0021142 123.7924 236.4141 01.03289810 79206
0 SL-12 R/B(2)
1 15693U 84063F   13287.45303205 -.00000052  00000-0  10000-3 0  8764
2 15693 013.4721 352.6469 0021259 123.5859 236.6096 01.03287544 79261
0 SL-12 R/B(2)
1 15693U 84063F   13290.35739233 -.00000090  00000-0  10000-3 0  8774
2 15693 013.4721 352.6164 0021335 124.0575 236.1254 01.03288415 79291
0 SL-12 R/B(2)
1 15693U 84063F   13293.26173691 -.00000151  00000-0  10000-3 0  8786
2 15693 013.4719 352.5854 0021374 124.1312 236.0501 01.03289698 79328
0 SL-12 R/B(2)
1 15693U 84063F   13294.22984849 -.00000164  00000-0  10000-3 0  8793
2 15693 013.4724 352.5753 0021578 125.5736 234.6065 01.03289967 79332
